OBJECT_NAME,OBJECT_ID,EPOCH,MEAN_MOTION,ECCENTRICITY,INCLINATION,RA_OF_ASC_NODE,ARG_OF_PERICENTER,MEAN_ANOMALY,EPHEMERIS_TYPE,CLASSIFICATION_TYPE,NORAD_CAT_ID,ELEMENT_SET_NO,REV_AT_EPOCH,BSTAR,MEAN_MOTION_DOT,MEAN_MOTION_DDOT
STARLINK-11585 [DTC],2025-057C,2026-06-28T20:36:35.495424,15.70935941,.00020994,43.0002,314.2601,272.7018,87.3610,0,U,63309,999,7469,.18386327E-2,.243497E-2,0
STARLINK-11587 [DTC],2025-057D,2026-06-28T18:27:00.811296,15.70967723,.00007906,42.9976,315.3257,357.7679,2.3185,0,U,63310,999,7464,.11481797E-2,.150378E-2,0
STARLINK-11589 [DTC],2025-057E,2026-06-28T20:06:12.441600,15.70846985,.00014552,43.0000,314.9855,269.9120,90.1581,0,U,63311,999,7465,.14424212E-2,.188956E-2,0
STARLINK-11650 [DTC],2025-057F,2026-06-29T12:31:44.571360,15.70856871,.0002246,43.0012,310.6479,279.2327,80.8286,0,U,63312,999,7479,.74288E-3,.96055E-3,0
STARLINK-11648 [DTC],2025-057G,2026-06-28T18:11:41.961120,15.70957807,.00043191,42.9997,315.2397,254.5463,105.4927,0,U,63313,999,7464,.1125932E-2,.147391E-2,0
STARLINK-11640 [DTC],2025-057H,2026-06-29T12:22:46.796160,15.70725598,.0001921,43.0005,310.6020,301.0692,58.9987,0,U,63314,999,7476,.23418E-2,.310024E-2,0
STARLINK-11652 [DTC],2025-057J,2026-06-28T16:17:12.761088,15.70924749,.00009474,43.0013,315.4925,254.5413,105.5350,0,U,63315,999,7466,.12329277E-2,.161435E-2,0
STARLINK-11645 [DTC],2025-057K,2026-06-29T12:38:04.429824,15.70875088,.0000658,42.9976,310.6836,231.4225,128.6584,0,U,63316,999,7479,.15936E-2,.209579E-2,0
STARLINK-11633 [DTC],2025-057L,2026-06-29T12:00:02.998944,15.70903366,.0001621,43.0003,310.1704,263.9672,217.1254,0,U,63317,999,603,-.11816E-2,-.149765E-2,0
STARLINK-11593 [DTC],2025-057M,2026-06-28T20:28:57.440640,15.70861890,.00017989,42.9988,314.2156,283.6606,76.4062,0,U,63318,999,7469,.1163097E-2,.151688E-2,0
STARLINK-11588 [DTC],2025-057N,2026-06-28T17:41:07.608768,15.70921324,.00028943,43.0018,315.0669,274.9405,85.1132,0,U,63319,999,7464,.14289675E-2,.187765E-2,0
STARLINK-33671,2025-057P,2026-06-28T22:24:04.049280,15.27585151,.00012671,43.0016,111.9726,272.6199,87.4508,0,U,63320,999,7291,.4882719E-3,.132E-3,0
STARLINK-33650,2025-057Q,2026-06-28T13:02:34.809216,15.27586551,.0001629,42.9984,124.5830,266.7424,93.3242,0,U,63321,999,7269,.58620203E-3,.15907E-3,0
STARLINK-33689,2025-057R,2026-06-28T20:42:16.003872,15.27584239,.00007857,42.9992,122.6753,257.2590,102.8174,0,U,63322,999,7278,.557932E-3,.15125E-3,0
STARLINK-33607,2025-057S,2026-06-28T21:13:43.266720,15.27590762,.00018264,43.0042,122.8541,280.6170,79.4476,0,U,63323,999,7274,.47110966E-3,.12728E-3,0
STARLINK-33619,2025-057T,2026-06-28T20:29:18.700224,15.27595567,.00022251,42.9973,122.6031,272.1253,87.9343,0,U,63324,999,7278,.78906364E-3,.21526E-3,0
STARLINK-33612,2025-057U,2026-06-28T21:48:54.471456,15.27578202,.00011598,43.0020,123.0280,253.2799,106.7926,0,U,63325,999,7278,.94515124E-3,.25836E-3,0
STARLINK-33672,2025-057V,2026-06-28T13:00:43.963200,15.27583784,.00011499,42.9988,124.5552,270.5433,89.5286,0,U,63326,999,7273,.736344E-3,.20058E-3,0
STARLINK-33625,2025-057W,2026-06-28T02:47:13.857504,15.27587203,.00011933,42.9985,119.6124,267.8954,92.1761,0,U,63327,999,7275,.67952526E-3,.18488E-3,0
STARLINK-33699,2025-057X,2026-06-28T21:20:27.259296,15.27590906,.0001772,42.9999,115.0875,273.9823,86.0826,0,U,63328,999,7283,.93044322E-3,.25439E-3,0
STARLINK-33674,2025-057Y,2026-06-28T21:24:49.532544,15.27590136,.00010773,42.9999,122.9023,256.8910,103.1822,0,U,63329,999,7278,.49204924E-3,.13307E-3,0
STARLINK-32840,2025-063A,2026-06-29T12:22:19.961184,15.34404995,.0000939,53.1592,249.2890,76.5063,283.6045,0,U,63363,999,7191,.56993E-3,.18932E-3,0
STARLINK-32543,2025-063B,2026-06-29T11:15:48.500640,15.34399978,.0001118,53.1587,249.7086,58.1357,301.9755,0,U,63364,999,7191,.72865E-3,.24322E-3,0
STARLINK-33741,2025-063C,2026-06-29T11:58:13.300320,15.34396030,.0001115,53.1573,249.8802,81.4759,278.6370,0,U,63365,999,7192,.4787E-3,.1583E-3,0
STARLINK-33742,2025-063D,2026-06-29T12:32:45.395232,15.30206609,.0001161,53.1589,252.8661,73.6157,286.4971,0,U,63366,999,7183,.54979E-3,.15962E-3,0
STARLINK-33734,2025-063E,2026-06-29T12:58:27.561792,15.30208297,.0001156,53.1594,262.9005,84.6642,275.4491,0,U,63367,999,7169,.29183E-3,.8296E-4,0
STARLINK-33578,2025-063F,2026-06-29T10:21:25.568352,15.34387155,.0001853,53.1584,250.1712,139.7773,220.3367,0,U,63368,999,7185,.72253E-3,.24104E-3,0
STARLINK-33626,2025-063G,2026-06-29T11:27:55.502208,15.34405766,.0001083,53.1576,249.7473,64.0354,296.0760,0,U,63369,999,7187,.72978E-3,.24365E-3,0
STARLINK-33657,2025-063H,2026-06-29T11:49:07.833792,15.34405650,.00012,53.1571,249.8378,100.8514,259.2624,0,U,63370,999,7187,.46381E-3,.15329E-3,0
STARLINK-33648,2025-063J,2026-06-29T12:39:27.264096,15.31717318,.0001066,53.1589,252.8966,93.3361,266.7763,0,U,63371,999,7188,.34446E-3,.10344E-3,0
