[
  {
    "name": "STARLINK-11585 [DTC]",
    "noradId": "63309",
    "line1": "1 63309U 25057C   26179.85874416  .00243497  00000+0  18386-2 0  9994",
    "line2": "2 63309  43.0002 314.2601 0002099 272.7018  87.3610 15.70935941 74691"
  },
  {
    "name": "STARLINK-11587 [DTC]",
    "noradId": "63310",
    "line1": "1 63310U 25057D   26179.76875939  .00150378  00000+0  11482-2 0  9992",
    "line2": "2 63310  42.9976 315.3257 0000790 357.7679   2.3185 15.70967723 74645"
  },
  {
    "name": "STARLINK-11589 [DTC]",
    "noradId": "63311",
    "line1": "1 63311U 25057E   26179.83764400  .00188956  00000+0  14424-2 0  9993",
    "line2": "2 63311  43.0000 314.9855 0001455 269.9120  90.1581 15.70846985 74651"
  },
  {
    "name": "STARLINK-11650 [DTC]",
    "noradId": "63312",
    "line1": "1 63312U 25057F   26180.52204365  .00096055  00000+0  74288-3 0  9994",
    "line2": "2 63312  43.0012 310.6479 0002246 279.2327  80.8286 15.70856871 74790"
  },
  {
    "name": "STARLINK-11648 [DTC]",
    "noradId": "63313",
    "line1": "1 63313U 25057G   26179.75812455  .00147391  00000+0  11259-2 0  9991",
    "line2": "2 63313  42.9997 315.2397 0004319 254.5463 105.4927 15.70957807 74642"
  },
  {
    "name": "STARLINK-11640 [DTC]",
    "noradId": "63314",
    "line1": "1 63314U 25057H   26180.51581940  .00310024  00000+0  23418-2 0  9995",
    "line2": "2 63314  43.0005 310.6020 0001921 301.0692  58.9987 15.70725598 74766"
  },
  {
    "name": "STARLINK-11652 [DTC]",
    "noradId": "63315",
    "line1": "1 63315U 25057J   26179.67861992  .00161435  00000+0  12329-2 0  9998",
    "line2": "2 63315  43.0013 315.4925 0000947 254.5413 105.5350 15.70924749 74664"
  },
  {
    "name": "STARLINK-11645 [DTC]",
    "noradId": "63316",
    "line1": "1 63316U 25057K   26180.52644016  .00209579  00000+0  15936-2 0  9990",
    "line2": "2 63316  42.9976 310.6836 0000658 231.4225 128.6584 15.70875088 74793"
  },
  {
    "name": "STARLINK-11633 [DTC]",
    "noradId": "63317",
    "line1": "1 63317U 25057L   26180.50003471 -.00149765  00000+0 -11816-2 0  9998",
    "line2": "2 63317  43.0003 310.1704 0001621 263.9672 217.1254 15.70903366  6034"
  },
  {
    "name": "STARLINK-11593 [DTC]",
    "noradId": "63318",
    "line1": "1 63318U 25057M   26179.85344260  .00151688  00000+0  11631-2 0  9999",
    "line2": "2 63318  42.9988 314.2156 0001798 283.6606  76.4062 15.70861890 74697"
  },
  {
    "name": "STARLINK-11588 [DTC]",
    "noradId": "63319",
    "line1": "1 63319U 25057N   26179.73689362  .00187765  00000+0  14290-2 0  9991",
    "line2": "2 63319  43.0018 315.0669 0002894 274.9405  85.1132 15.70921324 74649"
  },
  {
    "name": "STARLINK-33671",
    "noradId": "63320",
    "line1": "1 63320U 25057P   26179.93338020  .00013200  00000+0  48827-3 0  9993",
    "line2": "2 63320  43.0016 111.9726 0001267 272.6199  87.4508 15.27585151 72910"
  },
  {
    "name": "STARLINK-33650",
    "noradId": "63321",
    "line1": "1 63321U 25057Q   26179.54345844  .00015907  00000+0  58620-3 0  9991",
    "line2": "2 63321  42.9984 124.5830 0001629 266.7424  93.3242 15.27586551 72697"
  },
  {
    "name": "STARLINK-33689",
    "noradId": "63322",
    "line1": "1 63322U 25057R   26179.86268523  .00015125  00000+0  55793-3 0  9995",
    "line2": "2 63322  42.9992 122.6753 0000785 257.2590 102.8174 15.27584239 72782"
  },
  {
    "name": "STARLINK-33607",
    "noradId": "63323",
    "line1": "1 63323U 25057S   26179.88452855  .00012728  00000+0  47111-3 0  9992",
    "line2": "2 63323  43.0042 122.8541 0001826 280.6170  79.4476 15.27590762 72747"
  },
  {
    "name": "STARLINK-33619",
    "noradId": "63324",
    "line1": "1 63324U 25057T   26179.85368866  .00021526  00000+0  78906-3 0  9990",
    "line2": "2 63324  42.9973 122.6031 0002225 272.1253  87.9343 15.27595567 72782"
  },
  {
    "name": "STARLINK-33612",
    "noradId": "63325",
    "line1": "1 63325U 25057U   26179.90896379  .00025836  00000+0  94515-3 0  9994",
    "line2": "2 63325  43.0020 123.0280 0001159 253.2799 106.7926 15.27578202 72783"
  },
  {
    "name": "STARLINK-33672",
    "noradId": "63326",
    "line1": "1 63326U 25057V   26179.54217550  .00020058  00000+0  73634-3 0  9993",
    "line2": "2 63326  42.9988 124.5552 0001149 270.5433  89.5286 15.27583784 72732"
  },
  {
    "name": "STARLINK-33625",
    "noradId": "63327",
    "line1": "1 63327U 25057W   26179.11613261  .00018488  00000+0  67953-3 0  9997",
    "line2": "2 63327  42.9985 119.6124 0001193 267.8954  92.1761 15.27587203 72756"
  },
  {
    "name": "STARLINK-33699",
    "noradId": "63328",
    "line1": "1 63328U 25057X   26179.88920439  .00025439  00000+0  93044-3 0  9994",
    "line2": "2 63328  42.9999 115.0875 0001772 273.9823  86.0826 15.27590906 72838"
  },
  {
    "name": "STARLINK-33674",
    "noradId": "63329",
    "line1": "1 63329U 25057Y   26179.89223996  .00013307  00000+0  49205-3 0  9991",
    "line2": "2 63329  42.9999 122.9023 0001077 256.8910 103.1822 15.27590136 72782"
  },
  {
    "name": "STARLINK-32840",
    "noradId": "63363",
    "line1": "1 63363U 25063A   26180.51550881  .00018932  00000+0  56993-3 0  9994",
    "line2": "2 63363  53.1592 249.2890 0000939  76.5063 283.6045 15.34404995 71910"
  },
  {
    "name": "STARLINK-32543",
    "noradId": "63364",
    "line1": "1 63364U 25063B   26180.46931135  .00024322  00000+0  72865-3 0  9990",
    "line2": "2 63364  53.1587 249.7086 0001118  58.1357 301.9755 15.34399978 71915"
  },
  {
    "name": "STARLINK-33741",
    "noradId": "63365",
    "line1": "1 63365U 25063C   26180.49876505  .00015830  00000+0  47870-3 0  9995",
    "line2": "2 63365  53.1573 249.8802 0001115  81.4759 278.6370 15.34396030 71920"
  },
  {
    "name": "STARLINK-33742",
    "noradId": "63366",
    "line1": "1 63366U 25063D   26180.52274763  .00015962  00000+0  54979-3 0  9992",
    "line2": "2 63366  53.1589 252.8661 0001161  73.6157 286.4971 15.30206609 71833"
  },
  {
    "name": "STARLINK-33734",
    "noradId": "63367",
    "line1": "1 63367U 25063E   26180.54059678  .00008296  00000+0  29183-3 0  9992",
    "line2": "2 63367  53.1594 262.9005 0001156  84.6642 275.4491 15.30208297 71693"
  },
  {
    "name": "STARLINK-33578",
    "noradId": "63368",
    "line1": "1 63368U 25063F   26180.43154593  .00024104  00000+0  72253-3 0  9995",
    "line2": "2 63368  53.1584 250.1712 0001853 139.7773 220.3367 15.34387155 71852"
  },
  {
    "name": "STARLINK-33626",
    "noradId": "63369",
    "line1": "1 63369U 25063G   26180.47772572  .00024365  00000+0  72978-3 0  9996",
    "line2": "2 63369  53.1576 249.7473 0001083  64.0354 296.0760 15.34405766 71870"
  },
  {
    "name": "STARLINK-33657",
    "noradId": "63370",
    "line1": "1 63370U 25063H   26180.49245178  .00015329  00000+0  46381-3 0  9996",
    "line2": "2 63370  53.1571 249.8378 0001200 100.8514 259.2624 15.34405650 71872"
  },
  {
    "name": "STARLINK-33648",
    "noradId": "63371",
    "line1": "1 63371U 25063J   26180.52739889  .00010344  00000+0  34446-3 0  9999",
    "line2": "2 63371  53.1589 252.8966 0001066  93.3361 266.7763 15.31717318 71887"
  }
]